{"type": "FeatureCollection", "features": [ {"type": "Feature", "properties": {"norad_id": 66564, "name": "STARLINK-35358", "group": "last-30-days", "lat": -9.604538830428655, "lon": 55.02126924681573, "alt_km": 398.96848229404986, "timestamp": "2025-12-22T05:49:02.183747+00:00", "meta": {"OBJECT_NAME": "STARLINK-35358", "OBJECT_ID": "2025-268H", "EPOCH": "2025-12-21T20:00:01.999008", "MEAN_MOTION": 15.56481699, "ECCENTRICITY": 0.0001467, "INCLINATION": 43.0006, "RA_OF_ASC_NODE": 67.8979, "ARG_OF_PERICENTER": 263.8156, "MEAN_ANOMALY": 307.4911, "EPHEMERIS_TYPE": 0, "CLASSIFICATION_TYPE": "U", "NORAD_CAT_ID": 66564, "ELEMENT_SET_NO": 999, "REV_AT_EPOCH": 608, "BSTAR": -0.0022101, "MEAN_MOTION_DOT": -0.00157968, "MEAN_MOTION_DDOT": 0}, "tle": {"line1": "1 66564U 25268H   25355.83335647 -.00157968  00000+0 -22101-2 0  9994", "line2": "2 66564  43.0006  67.8979 0001467 263.8156 307.4911 15.56481699  6080"}}, "geometry": {"type": "Point", "coordinates": [55.02126924681573, -9.604538830428655]}}, {"type": "Feature", "properties": {"norad_id": 66565, "name": "STARLINK-35893", "group": "last-30-days", "lat": -8.309243068950346, "lon": 56.460718715032414, "alt_km": 398.7019993531303, "timestamp": "2025-12-22T05:49:02.183758+00:00", "meta": {"OBJECT_NAME": "STARLINK-35893", "OBJECT_ID": "2025-268J", "EPOCH": "2025-12-21T20:00:01.999008", "MEAN_MOTION": 15.56506121, "ECCENTRICITY": 0.0001571, "INCLINATION": 43.0007, "RA_OF_ASC_NODE": 67.8919, "ARG_OF_PERICENTER": 270.2372, "MEAN_ANOMALY": 302.9728, "EPHEMERIS_TYPE": 0, "CLASSIFICATION_TYPE": "U", "NORAD_CAT_ID": 66565, "ELEMENT_SET_NO": 999, "REV_AT_EPOCH": 608, "BSTAR": -0.0024812, "MEAN_MOTION_DOT": -0.00177043, "MEAN_MOTION_DDOT": 0}, "tle": {"line1": "1 66565U 25268J   25355.83335647 -.00177043  00000+0 -24812-2 0  9992", "line2": "2 66565  43.0007  67.8919 0001571 270.2372 302.9728 15.56506121  6088"}}, "geometry": {"type": "Point", "coordinates": [56.460718715032414, -8.309243068950346]}}, {"type": "Feature", "properties": {"norad_id": 66566, "name": "STARLINK-35871", "group": "last-30-days", "lat": -7.023346160483475, "lon": 57.876659845441864, "alt_km": 398.7853838828278, "timestamp": "2025-12-22T05:49:02.183769+00:00", "meta": {"OBJECT_NAME": "STARLINK-35871", "OBJECT_ID": "2025-268K", "EPOCH": "2025-12-21T20:00:01.999008", "MEAN_MOTION": 15.56482692, "ECCENTRICITY": 0.0001447, "INCLINATION": 43.0006, "RA_OF_ASC_NODE": 67.8879, "ARG_OF_PERICENTER": 261.7458, "MEAN_ANOMALY": 313.396, "EPHEMERIS_TYPE": 0, "CLASSIFICATION_TYPE": "U", "NORAD_CAT_ID": 66566, "ELEMENT_SET_NO": 999, "REV_AT_EPOCH": 608, "BSTAR": -0.0022491, "MEAN_MOTION_DOT": -0.00160705, "MEAN_MOTION_DDOT": 0}, "tle": {"line1": "1 66566U 25268K   25355.83335647 -.00160705  00000+0 -22491-2 0  9991", "line2": "2 66566  43.0006  67.8879 0001447 261.7458 313.3960 15.56482692  6085"}}, "geometry": {"type": "Point", "coordinates": [57.876659845441864, -7.023346160483475]}}, {"type": "Feature", "properties": {"norad_id": 66567, "name": "STARLINK-35825", "group": "last-30-days", "lat": -5.7221608814920115, "lon": 59.2963287543504, "alt_km": 398.45964113835, "timestamp": "2025-12-22T05:49:02.183780+00:00", "meta": {"OBJECT_NAME": "STARLINK-35825", "OBJECT_ID": "2025-268L", "EPOCH": "2025-12-21T20:00:01.999008", "MEAN_MOTION": 15.56460887, "ECCENTRICITY": 0.0001484, "INCLINATION": 43.0008, "RA_OF_ASC_NODE": 67.8834, "ARG_OF_PERICENTER": 270.4042, "MEAN_ANOMALY": 306.663, "EPHEMERIS_TYPE": 0, "CLASSIFICATION_TYPE": "U", "NORAD_CAT_ID": 66567, "ELEMENT_SET_NO": 999, "REV_AT_EPOCH": 608, "BSTAR": -0.0015727, "MEAN_MOTION_DOT": -0.00113063, "MEAN_MOTION_DDOT": 0}, "tle": {"line1": "1 66567U 25268L   25355.83335647 -.00113063  00000+0 -15727-2 0  9991", "line2": "2 66567  43.0008  67.8834 0001484 270.4042 306.6630 15.56460887  6087"}}, "geometry": {"type": "Point", "coordinates": [59.2963287543504, -5.7221608814920115]}}, {"type": "Feature", "properties": {"norad_id": 66568, "name": "STARLINK-35803", "group": "last-30-days", "lat": -18.853839908964396, "lon": 44.01868591614739, "alt_km": 402.24778018357756, "timestamp": "2025-12-22T05:49:02.183790+00:00", "meta": {"OBJECT_NAME": "STARLINK-35803", "OBJECT_ID": "2025-268M", "EPOCH": "2025-12-21T20:00:01.999008", "MEAN_MOTION": 15.54538943, "ECCENTRICITY": 0.000169, "INCLINATION": 43.0011, "RA_OF_ASC_NODE": 67.9237, "ARG_OF_PERICENTER": 272.1113, "MEAN_ANOMALY": 287.187, "EPHEMERIS_TYPE": 0, "CLASSIFICATION_TYPE": "U", "NORAD_CAT_ID": 66568, "ELEMENT_SET_NO": 999, "REV_AT_EPOCH": 608, "BSTAR": 0.015714, "MEAN_MOTION_DOT": 0.01165147, "MEAN_MOTION_DDOT": 0}, "tle": {"line1": "1 66568U 25268M   25355.83335647  .01165147  00000+0  15714-1 0  9996", "line2": "2 66568  43.0011  67.9237 0001690 272.1113 287.1870 15.54538943  6083"}}, "geometry": {"type": "Point", "coordinates": [44.01868591614739, -18.853839908964396]}}, {"type": "Feature", "properties": {"norad_id": 66569, "name": "STARLINK-35835", "group": "last-30-days", "lat": -3.1205570769166644, "lon": 62.10511183993078, "alt_km": 398.23500247347056, "timestamp": "2025-12-22T05:49:02.183801+00:00", "meta": {"OBJECT_NAME": "STARLINK-35835", "OBJECT_ID": "2025-268N", "EPOCH": "2025-12-21T20:00:01.999008", "MEAN_MOTION": 15.56475827, "ECCENTRICITY": 0.0001522, "INCLINATION": 43.0006, "RA_OF_ASC_NODE": 67.8732, "ARG_OF_PERICENTER": 271.526, "MEAN_ANOMALY": 309.3721, "EPHEMERIS_TYPE": 0, "CLASSIFICATION_TYPE": "U", "NORAD_CAT_ID": 66569, "ELEMENT_SET_NO": 999, "REV_AT_EPOCH": 608, "BSTAR": -0.0021151, "MEAN_MOTION_DOT": -0.0015129, "MEAN_MOTION_DDOT": 0}, "tle": {"line1": "1 66569U 25268N   25355.83335647 -.00151290  00000+0 -21151-2 0  9995", "line2": "2 66569  43.0006  67.8732 0001522 271.5260 309.3721 15.56475827  6082"}}, "geometry": {"type": "Point", "coordinates": [62.10511183993078, -3.1205570769166644]}}, {"type": "Feature", "properties": {"norad_id": 66570, "name": "STARLINK-35834", "group": "last-30-days", "lat": -6.6303814917896915, "lon": 58.304039432466816, "alt_km": 410.55466402663114, "timestamp": "2025-12-22T05:49:02.183813+00:00", "meta": {"OBJECT_NAME": "STARLINK-35834", "OBJECT_ID": "2025-268P", "EPOCH": "2025-12-21T20:00:01.999008", "MEAN_MOTION": 15.54092314, "ECCENTRICITY": 0.0001053, "INCLINATION": 43.0006, "RA_OF_ASC_NODE": 67.872, "ARG_OF_PERICENTER": 270.508, "MEAN_ANOMALY": 310.0555, "EPHEMERIS_TYPE": 0, "CLASSIFICATION_TYPE": "U", "NORAD_CAT_ID": 66570, "ELEMENT_SET_NO": 999, "REV_AT_EPOCH": 608, "BSTAR": -0.035921, "MEAN_MOTION_DOT": -0.02123595, "MEAN_MOTION_DDOT": 0}, "tle": {"line1": "1 66570U 25268P   25355.83335647 -.02123595  00000+0 -35921-1 0  9995", "line2": "2 66570  43.0006  67.8720 0001053 270.5080 310.0555 15.54092314  6087"}}, "geometry": {"type": "Point", "coordinates": [58.304039432466816, -6.6303814917896915]}}, {"type": "Feature", "properties": {"norad_id": 66571, "name": "STARLINK-35836", "group": "last-30-days", "lat": -3.6047834388619884, "lon": 61.582531199726134, "alt_km": 407.7120359936225, "timestamp": "2025-12-22T05:49:02.183824+00:00", "meta": {"OBJECT_NAME": "STARLINK-35836", "OBJECT_ID": "2025-268Q", "EPOCH": "2025-12-21T20:00:01.999008", "MEAN_MOTION": 15.54917244, "ECCENTRICITY": 0.0001036, "INCLINATION": 43.0005, "RA_OF_ASC_NODE": 67.8642, "ARG_OF_PERICENTER": 274.0493, "MEAN_ANOMALY": 309.7353, "EPHEMERIS_TYPE": 0, "CLASSIFICATION_TYPE": "U", "NORAD_CAT_ID": 66571, "ELEMENT_SET_NO": 999, "REV_AT_EPOCH": 608, "BSTAR": -0.034331, "MEAN_MOTION_DOT": -0.02096017, "MEAN_MOTION_DDOT": 0}, "tle": {"line1": "1 66571U 25268Q   25355.83335647 -.02096017  00000+0 -34331-1 0  9998", "line2": "2 66571  43.0005  67.8642 0001036 274.0493 309.7353 15.54917244  6087"}}, "geometry": {"type": "Point", "coordinates": [61.582531199726134, -3.6047834388619884]}}, {"type": "Feature", "properties": {"norad_id": 66572, "name": "STARLINK-35870", "group": "last-30-days", "lat": -0.20567709479298682, "lon": 65.22699186839995, "alt_km": 403.3005998948556, "timestamp": "2025-12-22T05:49:02.183835+00:00", "meta": {"OBJECT_NAME": "STARLINK-35870", "OBJECT_ID": "2025-268R", "EPOCH": "2025-12-21T20:00:01.999008", "MEAN_MOTION": 15.56513029, "ECCENTRICITY": 0.000117, "INCLINATION": 43.0006, "RA_OF_ASC_NODE": 67.8584, "ARG_OF_PERICENTER": 266.6797, "MEAN_ANOMALY": 319.8565, "EPHEMERIS_TYPE": 0, "CLASSIFICATION_TYPE": "U", "NORAD_CAT_ID": 66572, "ELEMENT_SET_NO": 999, "REV_AT_EPOCH": 610, "BSTAR": -0.035259, "MEAN_MOTION_DOT": -0.02262532, "MEAN_MOTION_DDOT": 0}, "tle": {"line1": "1 66572U 25268R   25355.83335647 -.02262532  00000+0 -35259-1 0  9996", "line2": "2 66572  43.0006  67.8584 0001170 266.6797 319.8565 15.56513029  6102"}}, "geometry": {"type": "Point", "coordinates": [65.22699186839995, -0.20567709479298682]}}, {"type": "Feature", "properties": {"norad_id": 66573, "name": "STARLINK-35650", "group": "last-30-days", "lat": 1.7839572199681817, "lon": 67.35516191193183, "alt_km": 400.48469626848237, "timestamp": "2025-12-22T05:49:02.183845+00:00", "meta": {"OBJECT_NAME": "STARLINK-35650", "OBJECT_ID": "2025-268S", "EPOCH": "2025-12-21T20:00:01.999008", "MEAN_MOTION": 15.56976913, "ECCENTRICITY": 0.000119, "INCLINATION": 43.0008, "RA_OF_ASC_NODE": 67.8531, "ARG_OF_PERICENTER": 261.4617, "MEAN_ANOMALY": 326.946, "EPHEMERIS_TYPE": 0, "CLASSIFICATION_TYPE": "U", "NORAD_CAT_ID": 66573, "ELEMENT_SET_NO": 999, "REV_AT_EPOCH": 608, "BSTAR": -0.026154, "MEAN_MOTION_DOT": -0.01730978, "MEAN_MOTION_DDOT": 0}, "tle": {"line1": "1 66573U 25268S   25355.83335647 -.01730978  00000+0 -26154-1 0  9994", "line2": "2 66573  43.0008  67.8531 0001190 261.4617 326.9460 15.56976913  6088"}}, "geometry": {"type": "Point", "coordinates": [67.35516191193183, 1.7839572199681817]}}]}